[{"OBJECT_NAME":"STARLINK-34747","OBJECT_ID":"2025-158R","EPOCH":"2026-03-03T15:05:33.002016","MEAN_MOTION":15.05648033,"ECCENTRICITY":0.0002916,"INCLINATION":97.6003,"RA_OF_ASC_NODE":288.111,"ARG_OF_PERICENTER":75.001,"MEAN_ANOMALY":285.1539,"EPHEMERIS_TYPE":0,"CLASSIFICATION_TYPE":"U","NORAD_CAT_ID":64947,"ELEMENT_SET_NO":999,"REV_AT_EPOCH":3444,"BSTAR":-0.00026785644,"MEAN_MOTION_DOT":-3.924e-5,"MEAN_MOTION_DDOT":0},{"OBJECT_NAME":"STARLINK-34630","OBJECT_ID":"2025-158S","EPOCH":"2026-03-03T14:21:42.673248","MEAN_MOTION":15.05654163,"ECCENTRICITY":0.00026868,"INCLINATION":97.6011,"RA_OF_ASC_NODE":288.1505,"ARG_OF_PERICENTER":83.8281,"MEAN_ANOMALY":276.3251,"EPHEMERIS_TYPE":0,"CLASSIFICATION_TYPE":"U","NORAD_CAT_ID":64948,"ELEMENT_SET_NO":999,"REV_AT_EPOCH":3444,"BSTAR":0.00026705791,"MEAN_MOTION_DOT":3.795e-5,"MEAN_MOTION_DDOT":0},{"OBJECT_NAME":"STARLINK-34689","OBJECT_ID":"2025-158T","EPOCH":"2026-03-03T14:01:45.440544","MEAN_MOTION":15.05664104,"ECCENTRICITY":0.00021694,"INCLINATION":97.6014,"RA_OF_ASC_NODE":288.0136,"ARG_OF_PERICENTER":94.624,"MEAN_ANOMALY":265.5235,"EPHEMERIS_TYPE":0,"CLASSIFICATION_TYPE":"U","NORAD_CAT_ID":64949,"ELEMENT_SET_NO":999,"REV_AT_EPOCH":3443,"BSTAR":0.0002147841,"MEAN_MOTION_DOT":3.041e-5,"MEAN_MOTION_DDOT":0},{"OBJECT_NAME":"STARLINK-34586","OBJECT_ID":"2025-158U","EPOCH":"2026-03-03T15:21:30.664800","MEAN_MOTION":15.0565352,"ECCENTRICITY":0.00021734,"INCLINATION":97.6017,"RA_OF_ASC_NODE":288.0956,"ARG_OF_PERICENTER":56.5343,"MEAN_ANOMALY":303.6091,"EPHEMERIS_TYPE":0,"CLASSIFICATION_TYPE":"U","NORAD_CAT_ID":64950,"ELEMENT_SET_NO":999,"REV_AT_EPOCH":3444,"BSTAR":0.00027443894,"MEAN_MOTION_DOT":3.902e-5,"MEAN_MOTION_DDOT":0},{"OBJECT_NAME":"STARLINK-34738","OBJECT_ID":"2025-158V","EPOCH":"2026-03-03T14:33:40.398048","MEAN_MOTION":15.05650559,"ECCENTRICITY":0.00022478,"INCLINATION":97.6024,"RA_OF_ASC_NODE":288.1413,"ARG_OF_PERICENTER":93.4965,"MEAN_ANOMALY":266.6519,"EPHEMERIS_TYPE":0,"CLASSIFICATION_TYPE":"U","NORAD_CAT_ID":64951,"ELEMENT_SET_NO":999,"REV_AT_EPOCH":3444,"BSTAR":0.00032423302,"MEAN_MOTION_DOT":4.621e-5,"MEAN_MOTION_DDOT":0},{"OBJECT_NAME":"STARLINK-34744","OBJECT_ID":"2025-158W","EPOCH":"2026-03-03T14:09:43.992864","MEAN_MOTION":15.0565552,"ECCENTRICITY":0.00026237,"INCLINATION":97.6008,"RA_OF_ASC_NODE":287.999,"ARG_OF_PERICENTER":83.3317,"MEAN_ANOMALY":276.8209,"EPHEMERIS_TYPE":0,"CLASSIFICATION_TYPE":"U","NORAD_CAT_ID":64952,"ELEMENT_SET_NO":999,"REV_AT_EPOCH":3443,"BSTAR":0.00027731341,"MEAN_MOTION_DOT":3.944e-5,"MEAN_MOTION_DDOT":0},{"OBJECT_NAME":"STARLINK-34701","OBJECT_ID":"2025-158X","EPOCH":"2026-03-03T14:25:41.997792","MEAN_MOTION":15.05653553,"ECCENTRICITY":0.000235,"INCLINATION":97.6016,"RA_OF_ASC_NODE":288.1473,"ARG_OF_PERICENTER":70.0001,"MEAN_ANOMALY":290.1479,"EPHEMERIS_TYPE":0,"CLASSIFICATION_TYPE":"U","NORAD_CAT_ID":64953,"ELEMENT_SET_NO":999,"REV_AT_EPOCH":3444,"BSTAR":0.00015794784,"MEAN_MOTION_DOT":2.219e-5,"MEAN_MOTION_DDOT":0},{"OBJECT_NAME":"STARLINK-34761","OBJECT_ID":"2025-158Y","EPOCH":"2026-03-03T12:30:02.778336","MEAN_MOTION":15.05651464,"ECCENTRICITY":0.00016496,"INCLINATION":97.6011,"RA_OF_ASC_NODE":287.9446,"ARG_OF_PERICENTER":78.8909,"MEAN_ANOMALY":281.2503,"EPHEMERIS_TYPE":0,"CLASSIFICATION_TYPE":"U","NORAD_CAT_ID":64954,"ELEMENT_SET_NO":999,"REV_AT_EPOCH":3442,"BSTAR":0.00020768452,"MEAN_MOTION_DOT":2.937e-5,"MEAN_MOTION_DDOT":0},{"OBJECT_NAME":"STARLINK-34732","OBJECT_ID":"2025-158Z","EPOCH":"2026-03-03T14:53:36.299328","MEAN_MOTION":15.05659391,"ECCENTRICITY":0.00024916,"INCLINATION":97.6033,"RA_OF_ASC_NODE":288.1232,"ARG_OF_PERICENTER":77.0285,"MEAN_ANOMALY":283.122,"EPHEMERIS_TYPE":0,"CLASSIFICATION_TYPE":"U","NORAD_CAT_ID":64955,"ELEMENT_SET_NO":999,"REV_AT_EPOCH":3444,"BSTAR":0.00041067438,"MEAN_MOTION_DOT":5.871e-5,"MEAN_MOTION_DDOT":0},{"OBJECT_NAME":"STARLINK-34617","OBJECT_ID":"2025-161A","EPOCH":"2026-03-03T00:14:06.791712","MEAN_MOTION":15.30211887,"ECCENTRICITY":0.00010787,"INCLINATION":53.1596,"RA_OF_ASC_NODE":325.4823,"ARG_OF_PERICENTER":88.0542,"MEAN_ANOMALY":272.0582,"EPHEMERIS_TYPE":0,"CLASSIFICATION_TYPE":"U","NORAD_CAT_ID":65015,"ELEMENT_SET_NO":999,"REV_AT_EPOCH":3320,"BSTAR":0.0012953754,"MEAN_MOTION_DOT":0.00038218,"MEAN_MOTION_DDOT":0},{"OBJECT_NAME":"STARLINK-34627","OBJECT_ID":"2025-161B","EPOCH":"2026-03-02T23:51:18.891360","MEAN_MOTION":15.30217895,"ECCENTRICITY":7.596e-5,"INCLINATION":53.1611,"RA_OF_ASC_NODE":325.3834,"ARG_OF_PERICENTER":102.5704,"MEAN_ANOMALY":257.5382,"EPHEMERIS_TYPE":0,"CLASSIFICATION_TYPE":"U","NORAD_CAT_ID":65016,"ELEMENT_SET_NO":999,"REV_AT_EPOCH":3441,"BSTAR":0.0013063512,"MEAN_MOTION_DOT":0.00038553,"MEAN_MOTION_DDOT":0},{"OBJECT_NAME":"STARLINK-34549","OBJECT_ID":"2025-161C","EPOCH":"2026-03-03T03:38:46.130784","MEAN_MOTION":15.30205937,"ECCENTRICITY":0.00011811,"INCLINATION":53.1589,"RA_OF_ASC_NODE":324.2321,"ARG_OF_PERICENTER":79.8197,"MEAN_ANOMALY":280.2937,"EPHEMERIS_TYPE":0,"CLASSIFICATION_TYPE":"U","NORAD_CAT_ID":65017,"ELEMENT_SET_NO":999,"REV_AT_EPOCH":3444,"BSTAR":0.0009731211,"MEAN_MOTION_DOT":0.00028578,"MEAN_MOTION_DDOT":0},{"OBJECT_NAME":"STARLINK-34623","OBJECT_ID":"2025-161D","EPOCH":"2026-03-03T00:23:15.890496","MEAN_MOTION":15.30169616,"ECCENTRICITY":0.00018206,"INCLINATION":53.1596,"RA_OF_ASC_NODE":325.5229,"ARG_OF_PERICENTER":112.3438,"MEAN_ANOMALY":247.7756,"EPHEMERIS_TYPE":0,"CLASSIFICATION_TYPE":"U","NORAD_CAT_ID":65018,"ELEMENT_SET_NO":999,"REV_AT_EPOCH":3430,"BSTAR":0.0021222806,"MEAN_MOTION_DOT":0.00062972,"MEAN_MOTION_DDOT":0},{"OBJECT_NAME":"STARLINK-34232","OBJECT_ID":"2025-161E","EPOCH":"2026-03-03T00:03:28.424448","MEAN_MOTION":15.30210081,"ECCENTRICITY":0.00011433,"INCLINATION":53.1599,"RA_OF_ASC_NODE":325.435,"ARG_OF_PERICENTER":99.3774,"MEAN_ANOMALY":260.7356,"EPHEMERIS_TYPE":0,"CLASSIFICATION_TYPE":"U","NORAD_CAT_ID":65019,"ELEMENT_SET_NO":999,"REV_AT_EPOCH":3441,"BSTAR":0.0011494056,"MEAN_MOTION_DOT":0.00033849,"MEAN_MOTION_DDOT":0},{"OBJECT_NAME":"STARLINK-34772","OBJECT_ID":"2025-161F","EPOCH":"2026-03-03T01:08:39.750720","MEAN_MOTION":15.30204558,"ECCENTRICITY":0.0001508,"INCLINATION":53.1613,"RA_OF_ASC_NODE":325.0071,"ARG_OF_PERICENTER":63.5195,"MEAN_ANOMALY":296.596,"EPHEMERIS_TYPE":0,"CLASSIFICATION_TYPE":"U","NORAD_CAT_ID":65020,"ELEMENT_SET_NO":999,"REV_AT_EPOCH":3442,"BSTAR":0.0010061426,"MEAN_MOTION_DOT":0.00029563,"MEAN_MOTION_DDOT":0},{"OBJECT_NAME":"STARLINK-34778","OBJECT_ID":"2025-161G","EPOCH":"2026-03-03T03:25:16.040928","MEAN_MOTION":15.30182582,"ECCENTRICITY":9.715e-5,"INCLINATION":53.1594,"RA_OF_ASC_NODE":324.8874,"ARG_OF_PERICENTER":83.0589,"MEAN_ANOMALY":277.0523,"EPHEMERIS_TYPE":0,"CLASSIFICATION_TYPE":"U","NORAD_CAT_ID":65021,"ELEMENT_SET_NO":999,"REV_AT_EPOCH":3431,"BSTAR":0.0010929412,"MEAN_MOTION_DOT":0.00032133,"MEAN_MOTION_DDOT":0}]
