STARLINK-34747          
1 64947U 25158R   26062.62885419 -.00003924  00000+0 -26786-3 0  9991
2 64947  97.6003 288.1110 0002916  75.0010 285.1539 15.05648033 34442
STARLINK-34630          
1 64948U 25158S   26062.59841057  .00003795  00000+0  26706-3 0  9994
2 64948  97.6011 288.1505 0002686  83.8281 276.3251 15.05654163 34445
STARLINK-34689          
1 64949U 25158T   26062.58455371  .00003041  00000+0  21478-3 0  9999
2 64949  97.6014 288.0136 0002169  94.6240 265.5235 15.05664104 34436
STARLINK-34586          
1 64950U 25158U   26062.63993825  .00003902  00000+0  27444-3 0  9993
2 64950  97.6017 288.0956 0002173  56.5343 303.6091 15.05653520 34442
STARLINK-34738          
1 64951U 25158V   26062.60671757  .00004621  00000+0  32423-3 0  9990
2 64951  97.6024 288.1413 0002247  93.4965 266.6519 15.05650559 34444
STARLINK-34744          
1 64952U 25158W   26062.59009251  .00003944  00000+0  27731-3 0  9996
2 64952  97.6008 287.9990 0002623  83.3317 276.8209 15.05655520 34432
STARLINK-34701          
1 64953U 25158X   26062.60118053  .00002219  00000+0  15795-3 0  9991
2 64953  97.6016 288.1473 0002350  70.0001 290.1479 15.05653553 34444
STARLINK-34761          
1 64954U 25158Y   26062.52086549  .00002937  00000+0  20768-3 0  9990
2 64954  97.6011 287.9446 0001649  78.8909 281.2503 15.05651464 34426
STARLINK-34732          
1 64955U 25158Z   26062.62055902  .00005871  00000+0  41067-3 0  9996
2 64955  97.6033 288.1232 0002491  77.0285 283.1220 15.05659391 34447
STARLINK-34617          
1 65015U 25161A   26062.00980083  .00038218  00000+0  12954-2 0  9990
2 65015  53.1596 325.4823 0001078  88.0542 272.0582 15.30211887 33208
STARLINK-34627          
1 65016U 25161B   26061.99396865  .00038553  00000+0  13064-2 0  9992
2 65016  53.1611 325.3834 0000759 102.5704 257.5382 15.30217895 34410
STARLINK-34549          
1 65017U 25161C   26062.15192281  .00028578  00000+0  97312-3 0  9993
2 65017  53.1589 324.2321 0001181  79.8197 280.2937 15.30205937 34442
STARLINK-34623          
1 65018U 25161D   26062.01615614  .00062972  00000+0  21223-2 0  9992
2 65018  53.1596 325.5229 0001820 112.3438 247.7756 15.30169616 34308
STARLINK-34232          
1 65019U 25161E   26062.00241232  .00033849  00000+0  11494-2 0  9993
2 65019  53.1599 325.4350 0001143  99.3774 260.7356 15.30210081 34417
STARLINK-34772          
1 65020U 25161F   26062.04768230  .00029563  00000+0  10061-2 0  9998
2 65020  53.1613 325.0071 0001508  63.5195 296.5960 15.30204558 34428
STARLINK-34778          
1 65021U 25161G   26062.14254677  .00032133  00000+0  10929-2 0  9995
2 65021  53.1594 324.8874 0000971  83.0589 277.0523 15.30182582 34311
